AMC-1 (GE-1)            
1 24315U 96054A   23019.47785178  .00000070  00000+0  00000+0 0  9996
2 24315   6.1296  71.2999 0003276 215.4889 232.9238  1.00272191 96549
AMC-3 (GE-3)            
1 24936U 97050A   23018.56288765 -.00000250  00000+0  00000+0 0  9992
2 24936   5.0698  77.4487 0002958 224.8178 306.0548  1.00271751 39942
ASTRA 1G                
1 25071U 97076A   23018.87430584  .00000122  00000+0  00000+0 0  9990
2 25071   6.7363  66.6131 0003315 232.0117 153.4951  1.00270381 92059
ASTRA 2A                
1 25462U 98050A   23018.81016403  .00000079  00000+0  00000+0 0  9992
2 25462   3.9416  83.2617 0003022 215.9025 167.6226  1.00272316 33853
AMC-4 (GE-4)            
1 25954U 99060A   23018.77189862  .00000101  00000+0  00000+0 0  9991
2 25954   2.0476  89.2465 0002701 218.1037 313.5360  1.00269979 31066
NSS-11 (AAP-1)          
1 26554U 00059A   23018.83386133  .00000040  00000+0  00000+0 0  9997
2 26554   0.0524 286.0903 0002436  19.1170 288.9346  1.00271716 81685
AMC-6 (GE-6)            
1 26580U 00067A   23018.77111414  .00000120  00000+0  00000+0 0  9995
2 26580   0.0271 315.2968 0002354 350.7458 310.4425  1.00270003 81419
ASTRA 2D                
1 26638U 00081A   23012.27667747  .00000143  00000+0  00000+0 0  9994
2 26638   7.7344  58.8691 0001847 227.3965 308.5863  1.00276875 40354
AMC-8 (GE-8)            
1 26639U 00081B   23019.08771806 -.00000093  00000+0  00000+0 0  9998
2 26639   2.9053  87.5053 0005479 222.9038 209.9659  0.99152402 80781
ASTRA 2C                
1 26853U 01025A   23019.18525441 -.00000251  00000+0  00000+0 0  9994
2 26853   5.0955  77.2549 0002781 220.4156 174.8760  1.00271524 79092
NSS-7                   
1 27414U 02019A   23019.00987976 -.00000151  00000+0  00000+0 0  9997
2 27414   6.4026  69.5189 0002775 234.7795 157.3722  1.00271197 76079
NSS-6                   
1 27603U 02057A   23019.13105161  .00000119  00000+0  00000+0 0  9994
2 27603   2.1555  89.1754 0003500 216.7330  50.0337  1.00274329 73558
AMC-11 (GE-11)          
1 28252U 04017A   23018.65613750 -.00000033  00000+0  00000+0 0  9993
2 28252   0.0431 299.4096 0002743 344.5184 318.9629  1.00271440 68385
AMC-15                  
1 28446U 04041A   23019.47105354 -.00000076  00000+0  00000+0 0  9999
2 28446   0.0472 296.0581 0002253  14.5729 232.4819  1.00271120 66869
NSS-10 (AMC-12)         
1 28526U 05003A   23018.86306157 -.00000239  00000+0  00000+0 0  9994
2 28526   3.3177  85.0499 0002868 209.7481  96.4368  1.00271630 40668
ASTRA 1KR               
1 29055U 06012A   23019.23293483  .00000133  00000+0  00000+0 0  9994
2 29055   0.0634 267.2390 0004823 356.3111 317.8391  1.00268871 61262
AMC-18                  
1 29644U 06054B   23019.51019792 -.00000204  00000+0  00000+0 0  9994
2 29644   0.0197  59.7304 0001845 246.9631 272.6092  1.00272245 59040
ASTRA 1L                
1 31306U 07016A   23018.80258067  .00000135  00000+0  00000+0 0  9994
2 31306   0.0760 301.5546 0005309 352.4089 132.0912  1.00270485 32527
ASTRA 4A (SIRIUS 4)     
1 32299U 07057A   23018.58457459  .00000049  00000+0  00000+0 0  9996
2 32299   0.0224  61.0968 0002467 238.2341  33.6266  1.00271636 39179
AMC-21                  
1 33275U 08038B   23018.63928406  .00000053  00000+0  00000+0 0  9997
2 33275   0.0496 291.0033 0002288  20.5947 271.4215  1.00269997 53009
ASTRA 1M                
1 33436U 08057A   23019.08946135  .00000134  00000+0  00000+0 0  9996
2 33436   0.0175  53.9395 0001042 177.0520 298.6612  1.00275656 51997
CIEL-2                  
1 33453U 08063A   23018.77285744  .00000074  00000+0  00000+0 0  9992
2 33453   0.0527 247.8524 0002749  45.6982 333.7173  1.00269796 51645
NSS-9                   
1 33749U 09008A   23019.16595205  .00000085  00000+0  00000+0 0  9992
2 33749   0.0306 318.8910 0002011 347.4116  54.7844  1.00270994 51085
SES-7 (PROTOSTAR 2)     
1 34941U 09027A   23019.10396532 -.00000331  00000+0  00000+0 0  9999
2 34941   0.0127  54.3161 0001980 222.7042 346.8913  1.00271399 50124
NSS-12                  
1 36032U 09058A   23018.81016403  .00000087  00000+0  00000+0 0  9996
2 36032   0.0338 303.7237 0002636   1.3569 161.4999  1.00271886 48426
SES-1                   
1 36516U 10016A   23019.49699861 -.00000102  00000+0  00000+0 0  9998
2 36516   0.0534 283.4543 0002518  29.6409 243.4304  1.00270805 46654
ASTRA 3B                
1 36581U 10021A   23018.80345233  .00000152  00000+0  00000+0 0  9995
2 36581   0.0544  48.2538 0003376 247.6130 134.7867  1.00269548 46382
SES-3                   
1 37748U 11035A   23019.47331473 -.00000089  00000+0  00000+0 0  9992
2 37748   0.0323 321.5797 0002743 317.5907 266.8064  1.00271688 42215
ASTRA 1N                
1 37775U 11041A   23018.80258067  .00000135  00000+0  00000+0 0  9993
2 37775   0.0468   8.8947 0002978 348.4209  68.7440  1.00272531 32039
SES-2                   
1 37809U 11049A   23018.56626995 -.00000180  00000+0  00000+0 0  9992
2 37809   0.0415 293.1393 0002792  16.0826 285.3256  1.00272733 41508
QUETZSAT 1              
1 37826U 11054A   23018.85512958 -.00000226  00000+0  00000+0 0  9993
2 37826   0.0112  32.7491 0002466 268.2811  47.8003  1.00270680 37392
SES-4                   
1 38087U 12007A   23019.08126785 -.00000154  00000+0  00000+0 0  9997
2 38087   0.0242  54.3790 0002575 249.2165 181.8476  1.00271201 40005
SES-5                   
1 38652U 12036A   23019.23005838  .00000047  00000+0  00000+0 0  9999
2 38652   0.0574 290.8432 0001734   1.9794 273.3230  1.00270014 38584
ASTRA 2F                
1 38778U 12051A   23018.80441115  .00000165  00000+0  00000+0 0  9990
2 38778   0.0883 250.8838 0003531   3.2245 181.5774  1.00269733 28639
SES-6                   
1 39172U 13026A   23019.27917125 -.00000248  00000+0  00000+0 0  9996
2 39172   0.0484 294.9099 0001944 349.3761 254.1010  1.00269618 35232
O3B FM5                 
1 39188U 13031A   23019.15914168 -.00000011  00000+0  00000+0 0  9998
2 39188   0.0656   1.8895 0002891 301.4878  56.5927  5.00115348174845
O3B FM4                 
1 39189U 13031B   23017.21613855 -.00000008  00000+0  00000+0 0  9999
2 39189   0.0382 357.1937 0002834 304.3538  58.4236  5.00115858174679
O3B FM2                 
1 39190U 13031C   23018.50704115 -.00000010  00000+0  00000+0 0  9997
2 39190   0.0336 354.0223 0002806 306.8690  59.0792  5.00115107174782
O3B PFM                 
1 39191U 13031D   23018.93299428 -.00000011  00000+0  00000+0 0  9992
2 39191   0.0566   2.5101 0002735 295.0088  62.4512  5.00115834174829
ASTRA 2E                
1 39285U 13056A   23018.80441115  .00000165  00000+0  00000+0 0  9990
2 39285   0.0567 352.2924 0002762 313.2383 130.4540  1.00269398 33959
SES-8                   
1 39460U 13071A   23019.09841093 -.00000255  00000+0  00000+0 0  9994
2 39460   0.0645 254.0057 0001139 107.7954 246.8467  1.00269805 33384
ASTRA 5B                
1 39617U 14011B   23018.80502128  .00000170  00000+0  00000+0 0  9999
2 39617   0.0592 311.5150 0003308 340.5271 147.2111  1.00272501 32185
O3B FM3                 
1 40079U 14038A   23018.78784513 -.00000010  00000+0  00000+0 0  9993
2 40079   0.0458 358.4803 0004038 264.4450  97.0267  5.00116641150731
O3B FM7                 
1 40080U 14038B   23018.73401966 -.00000010  00000+0  00000+0 0  9998
2 40080   0.0437 353.5219 0003233 339.1298  27.3293  5.00115551155574
O3B FM6                 
1 40081U 14038C   23018.56054304 -.00000010  00000+0  00000+0 0  9990
2 40081   0.0450 359.2623 0002811 298.7724  61.9350  5.00115292155511
O3B FM8                 
1 40082U 14038D   23018.61437911 -.00000010  00000+0  00000+0 0  9996
2 40082   0.0418   0.0318 0002652 296.1395  63.7995  5.00115704155633
O3B FM10                
1 40348U 14083A   23018.64056696 -.00000010  00000+0  00000+0 0  9991
2 40348   0.0523   5.4440 0002718 292.4940  62.0325  5.00115168147575
O3B FM11                
1 40349U 14083B   23018.65396797 -.00000010  00000+0  00000+0 0  9992
2 40349   0.0540   0.6597 0003151 308.9828  50.3278  5.00115369147609
O3B FM12                
1 40350U 14083C   23017.48185959 -.00000008  00000+0  00000+0 0  9997
2 40350   0.0530   0.9699 0002938 296.3791  62.6197  5.00115294147554
O3B FM9                 
1 40351U 14083D   23019.10766703 -.00000011  00000+0  00000+0 0  9995
2 40351   0.0547 359.6150 0002754 300.4128  59.9426  5.00116072147780
ASTRA 2G                
1 40364U 14089A   23018.80441115  .00000165  00000+0  00000+0 0  9997
2 40364   0.0493 324.2000 0002495  61.7701  49.7516  1.00272874 29484
SES-9                   
1 41380U 16013A   23018.82035075 -.00000330  00000+0  00000+0 0  9996
2 41380   0.0406 283.9297 0000863 113.8536 123.7884  1.00270647 25267
SES-10                  
1 42432U 17017A   23019.50720623 -.00000260  00000+0  00000+0 0  9998
2 42432   0.0195  65.6749 0002537 236.9028 291.7258  1.00268257 21240
SES-15                  
1 42709U 17026A   23019.18964935  .00000073  00000+0  00000+0 0  9996
2 42709   0.0182 359.7057 0000153  28.5675  29.1627  1.00269856 21707
SES-11 (ECHOSTAR 105)   
1 42967U 17063A   23019.16684153 -.00000075  00000+0  00000+0 0  9995
2 42967   0.0494 273.6929 0002395  23.9051 135.8044  1.00270951 19329
SES-14                  
1 43175U 18012B   23019.07621227 -.00000264  00000+0  00000+0 0  9995
2 43175   0.0098   4.5275 0000695 302.0019 151.5961  1.00269457 18569
O3B FM15                
1 43231U 18024A   23018.57393052 -.00000010  00000+0  00000+0 0  9996
2 43231   0.0517   9.1960 0003068 288.3195  62.4513  5.00116221 88708
O3B FM16                
1 43232U 18024B   23018.62736492 -.00000010  00000+0  00000+0 0  9992
2 43232   0.0524  13.7280 0003078 284.5333  61.7056  5.00116001 88638
O3B FM14                
1 43233U 18024C   23019.06692582 -.00000011  00000+0  00000+0 0  9994
2 43233   0.0521  15.3873 0003047 286.6932  57.8876  5.00115439 88894
O3B FM13                
1 43234U 18024D   23019.12047053 -.00000011  00000+0  00000+0 0  9999
2 43234   0.0672 359.9356 0003867 295.5110  64.5111  5.00114987 88908
SES-12                  
1 43488U 18049A   23018.88938538 -.00000254  00000+0  00000+0 0  9995
2 43488   0.0119  33.5245 0002170 247.0841 252.5725  1.00270264 16926
O3B FM20                
1 44112U 19020A   23018.29404774 -.00000010  00000+0  00000+0 0  9995
2 44112   0.0515   5.4523 0003421 294.6744  59.8376  5.00115501 69247
O3B FM19                
1 44113U 19020B   23018.52080977 -.00000010  00000+0  00000+0 0  9997
2 44113   0.0718  11.3873 0002865 315.3874  33.2054  5.00115054 69122
O3B FM17                
1 44114U 19020C   23018.60120623 -.00000010  00000+0  00000+0 0  9990
2 44114   0.0361  22.1098 0003182 274.6091  63.2465  5.00115696 69218
O3B FM18                
1 44115U 19020D   23018.54768576 -.00000010  00000+0  00000+0 0  9999
2 44115   0.0520   5.2860 0002953 291.3369  63.3450  5.00115829 69330
SES-17                  
1 49332U 21095A   23018.78540919 -.00000257  00000+0  00000+0 0  9998
2 49332   0.0138  71.3436 0000727 202.6146  59.6044  1.00271219  5350
SES-22                  
1 52933U 22071A   23019.21327918  .00000102  00000+0  00000+0 0  9993
2 52933   0.0398 273.0137 0002342  21.8746 125.2075  1.00272150  2086
SES-20                  
1 53960U 22123A   23018.92163642 -.00000086  00000+0  00000+0 0  9993
2 53960   0.0604 117.9199 0000770 197.1024  31.6932  1.00271377  1058
SES-21                  
1 53961U 22123B   23019.09586108  .00000083  00000+0  00000+0 0  9995
2 53961   0.0309  55.3906 0000951 255.1497  71.2558  1.00270543  1072
O3B MPOWER-A F1         
1 54755U 22174A   23019.63705092  .00000033  00000+0  00000+0 0  9993
2 54755   7.2795 215.2769 1474082 266.6172  76.4808  6.62967374  2382
O3B MPOWER-A F2         
1 54756U 22174B   23018.33909404  .00000048  00000+0  00000+0 0  9999
2 54756   9.6183 213.8740 1871053 272.3160  66.5206  7.26306032  2351
